UNKNOWN                 
1 85423U          26080.09226852 -.00000119  00000+0  00000+0 0  9992
2 85423   0.2500  63.9100 0237500 184.1600 179.3500  1.04170165    18
UNKNOWN                 
1 85431U          26082.48659240  .00001522  00000+0  34575-3 0  9993
2 85431  29.0651 151.7335 0654836 324.8040  31.0910 13.68308286  1093
UNKNOWN                 
1 85448U          26072.61808446 -.00000384  00000+0  00000+0 0  9997
2 85448  41.4606 155.5047 0007289 313.6966 141.3444 15.68404032    03
UNKNOWN                 
1 87014U          26082.43066090  .00002615  00000+0  39947-2 0  9993
2 87014 100.4821  57.3047 0053816 358.3081 155.1551 13.52415880604522
UNKNOWN                 
1 87029U          26078.33522732  .00000758  00000+0  48537-3 0  9995
2 87029  98.7434 115.1411 0080507 340.0242  19.7780 14.04730446606560
UNKNOWN                 
1 87042U          26082.35960350  .00000607  00000+0  38337-3 0  9999
2 87042  98.7001 126.9038 0044192 170.0002 190.2057 14.07296501568117
UNKNOWN                 
1 87051U          26082.20100392  .00002660  00000+0  94708-3 0  9990
2 87051  65.7322  14.7763 0708507  95.2412 272.9824 13.46315054602101
UNKNOWN                 
1 87054U          26081.47637700  .00002024  00000+0  11439-2 0  9992
2 87054 100.0874 338.1513 0013983  70.6393 289.6284 14.11523053630397
UNKNOWN                 
1 87071U          26082.43096108  .00003119  00000+0  11493-2 0  9995
2 87071  61.2224 332.3143 0471330 288.3288  66.7026 13.86747814616445
UNKNOWN                 
1 87129U          26081.98196708  .00000192  00000+0  17158-2 0  9997
2 87129 102.2545 179.1297 0032929 250.2153 109.5359 12.42864638559125
UNKNOWN                 
1 87159U          26081.67013349  .00001258  00000+0  14588-2 0  9993
2 87159  90.3469  72.9961 0103013 322.0686  37.3248 13.66352933570338
UNKNOWN                 
1 87163U          26080.82491545  .00005787  00000+0  16857-2 0  9994
2 87163  65.6029 351.7872 0646578  20.3517 342.2078 13.64635463591037
