CCSDS_OMM_VERS = 2.0
CREATION_DATE  = 
ORIGINATOR     = 

OBJECT_NAME    = UNKNOWN
OBJECT_ID      = 
CENTER_NAME    = EARTH
REF_FRAME      = TEME
TIME_SYSTEM    = UTC
MEAN_ELEMENT_THEORY = SGP/SGP4

EPOCH          = 2026-03-21T02:12:52.000128
MEAN_MOTION    = 1.04170165
ECCENTRICITY   = .02375
INCLINATION    = 0.2500
RA_OF_ASC_NODE = 63.9100
ARG_OF_PERICENTER = 184.1600
MEAN_ANOMALY   = 179.3500

EPHEMERIS_TYPE = 0
CLASSIFICATION_TYPE = U
NORAD_CAT_ID   = 85423
ELEMENT_SET_NO = 999
REV_AT_EPOCH   = 1
BSTAR          = 0
MEAN_MOTION_DOT = -.119E-5
MEAN_MOTION_DDOT = 0

CCSDS_OMM_VERS = 2.0
CREATION_DATE  = 
ORIGINATOR     = 

OBJECT_NAME    = UNKNOWN
OBJECT_ID      = 
CENTER_NAME    = EARTH
REF_FRAME      = TEME
TIME_SYSTEM    = UTC
MEAN_ELEMENT_THEORY = SGP/SGP4

EPOCH          = 2026-03-23T11:40:41.583360
MEAN_MOTION    = 13.68308286
ECCENTRICITY   = .0654836
INCLINATION    = 29.0651
RA_OF_ASC_NODE = 151.7335
ARG_OF_PERICENTER = 324.8040
MEAN_ANOMALY   = 31.0910

EPHEMERIS_TYPE = 0
CLASSIFICATION_TYPE = U
NORAD_CAT_ID   = 85431
ELEMENT_SET_NO = 999
REV_AT_EPOCH   = 109
BSTAR          = .34575E-3
MEAN_MOTION_DOT = .1522E-4
MEAN_MOTION_DDOT = 0

CCSDS_OMM_VERS = 2.0
CREATION_DATE  = 
ORIGINATOR     = 

OBJECT_NAME    = UNKNOWN
OBJECT_ID      = 
CENTER_NAME    = EARTH
REF_FRAME      = TEME
TIME_SYSTEM    = UTC
MEAN_ELEMENT_THEORY = SGP/SGP4

EPOCH          = 2026-03-13T14:50:02.497344
MEAN_MOTION    = 15.68404032
ECCENTRICITY   = .0007289
INCLINATION    = 41.4606
RA_OF_ASC_NODE = 155.5047
ARG_OF_PERICENTER = 313.6966
MEAN_ANOMALY   = 141.3444

EPHEMERIS_TYPE = 0
CLASSIFICATION_TYPE = U
NORAD_CAT_ID   = 85448
ELEMENT_SET_NO = 999
REV_AT_EPOCH   = 0
BSTAR          = 0
MEAN_MOTION_DOT = -.384E-5
MEAN_MOTION_DDOT = 0

CCSDS_OMM_VERS = 2.0
CREATION_DATE  = 
ORIGINATOR     = 

OBJECT_NAME    = UNKNOWN
OBJECT_ID      = 
CENTER_NAME    = EARTH
REF_FRAME      = TEME
TIME_SYSTEM    = UTC
MEAN_ELEMENT_THEORY = SGP/SGP4

EPOCH          = 2026-03-23T10:20:09.101760
MEAN_MOTION    = 13.52415880
ECCENTRICITY   = .0053816
INCLINATION    = 100.4821
RA_OF_ASC_NODE = 57.3047
ARG_OF_PERICENTER = 358.3081
MEAN_ANOMALY   = 155.1551

EPHEMERIS_TYPE = 0
CLASSIFICATION_TYPE = U
NORAD_CAT_ID   = 87014
ELEMENT_SET_NO = 999
REV_AT_EPOCH   = 60452
BSTAR          = .39947E-2
MEAN_MOTION_DOT = .2615E-4
MEAN_MOTION_DDOT = 0

CCSDS_OMM_VERS = 2.0
CREATION_DATE  = 
ORIGINATOR     = 

OBJECT_NAME    = UNKNOWN
OBJECT_ID      = 
CENTER_NAME    = EARTH
REF_FRAME      = TEME
TIME_SYSTEM    = UTC
MEAN_ELEMENT_THEORY = SGP/SGP4

EPOCH          = 2026-03-19T08:02:43.640448
MEAN_MOTION    = 14.04730446
ECCENTRICITY   = .0080507
INCLINATION    = 98.7434
RA_OF_ASC_NODE = 115.1411
ARG_OF_PERICENTER = 340.0242
MEAN_ANOMALY   = 19.7780

EPHEMERIS_TYPE = 0
CLASSIFICATION_TYPE = U
NORAD_CAT_ID   = 87029
ELEMENT_SET_NO = 999
REV_AT_EPOCH   = 60656
BSTAR          = .48537E-3
MEAN_MOTION_DOT = .758E-5
MEAN_MOTION_DDOT = 0

CCSDS_OMM_VERS = 2.0
CREATION_DATE  = 
ORIGINATOR     = 

OBJECT_NAME    = UNKNOWN
OBJECT_ID      = 
CENTER_NAME    = EARTH
REF_FRAME      = TEME
TIME_SYSTEM    = UTC
MEAN_ELEMENT_THEORY = SGP/SGP4

EPOCH          = 2026-03-23T08:37:49.742400
MEAN_MOTION    = 14.07296501
ECCENTRICITY   = .0044192
INCLINATION    = 98.7001
RA_OF_ASC_NODE = 126.9038
ARG_OF_PERICENTER = 170.0002
MEAN_ANOMALY   = 190.2057

EPHEMERIS_TYPE = 0
CLASSIFICATION_TYPE = U
NORAD_CAT_ID   = 87042
ELEMENT_SET_NO = 999
REV_AT_EPOCH   = 56811
BSTAR          = .38337E-3
MEAN_MOTION_DOT = .607E-5
MEAN_MOTION_DDOT = 0

CCSDS_OMM_VERS = 2.0
CREATION_DATE  = 
ORIGINATOR     = 

OBJECT_NAME    = UNKNOWN
OBJECT_ID      = 
CENTER_NAME    = EARTH
REF_FRAME      = TEME
TIME_SYSTEM    = UTC
MEAN_ELEMENT_THEORY = SGP/SGP4

EPOCH          = 2026-03-23T04:49:26.738688
MEAN_MOTION    = 13.46315054
ECCENTRICITY   = .0708507
INCLINATION    = 65.7322
RA_OF_ASC_NODE = 14.7763
ARG_OF_PERICENTER = 95.2412
MEAN_ANOMALY   = 272.9824

EPHEMERIS_TYPE = 0
CLASSIFICATION_TYPE = U
NORAD_CAT_ID   = 87051
ELEMENT_SET_NO = 999
REV_AT_EPOCH   = 60210
BSTAR          = .94708E-3
MEAN_MOTION_DOT = .266E-4
MEAN_MOTION_DDOT = 0

CCSDS_OMM_VERS = 2.0
CREATION_DATE  = 
ORIGINATOR     = 

OBJECT_NAME    = UNKNOWN
OBJECT_ID      = 
CENTER_NAME    = EARTH
REF_FRAME      = TEME
TIME_SYSTEM    = UTC
MEAN_ELEMENT_THEORY = SGP/SGP4

EPOCH          = 2026-03-22T11:25:58.972800
MEAN_MOTION    = 14.11523053
ECCENTRICITY   = .0013983
INCLINATION    = 100.0874
RA_OF_ASC_NODE = 338.1513
ARG_OF_PERICENTER = 70.6393
MEAN_ANOMALY   = 289.6284

EPHEMERIS_TYPE = 0
CLASSIFICATION_TYPE = U
NORAD_CAT_ID   = 87054
ELEMENT_SET_NO = 999
REV_AT_EPOCH   = 63039
BSTAR          = .11439E-2
MEAN_MOTION_DOT = .2024E-4
MEAN_MOTION_DDOT = 0

CCSDS_OMM_VERS = 2.0
CREATION_DATE  = 
ORIGINATOR     = 

OBJECT_NAME    = UNKNOWN
OBJECT_ID      = 
CENTER_NAME    = EARTH
REF_FRAME      = TEME
TIME_SYSTEM    = UTC
MEAN_ELEMENT_THEORY = SGP/SGP4

EPOCH          = 2026-03-23T10:20:35.037312
MEAN_MOTION    = 13.86747814
ECCENTRICITY   = .047133
INCLINATION    = 61.2224
RA_OF_ASC_NODE = 332.3143
ARG_OF_PERICENTER = 288.3288
MEAN_ANOMALY   = 66.7026

EPHEMERIS_TYPE = 0
CLASSIFICATION_TYPE = U
NORAD_CAT_ID   = 87071
ELEMENT_SET_NO = 999
REV_AT_EPOCH   = 61644
BSTAR          = .11493E-2
MEAN_MOTION_DOT = .3119E-4
MEAN_MOTION_DDOT = 0

CCSDS_OMM_VERS = 2.0
CREATION_DATE  = 
ORIGINATOR     = 

OBJECT_NAME    = UNKNOWN
OBJECT_ID      = 
CENTER_NAME    = EARTH
REF_FRAME      = TEME
TIME_SYSTEM    = UTC
MEAN_ELEMENT_THEORY = SGP/SGP4

EPOCH          = 2026-03-22T23:34:01.955712
MEAN_MOTION    = 12.42864638
ECCENTRICITY   = .0032929
INCLINATION    = 102.2545
RA_OF_ASC_NODE = 179.1297
ARG_OF_PERICENTER = 250.2153
MEAN_ANOMALY   = 109.5359

EPHEMERIS_TYPE = 0
CLASSIFICATION_TYPE = U
NORAD_CAT_ID   = 87129
ELEMENT_SET_NO = 999
REV_AT_EPOCH   = 55912
BSTAR          = .17158E-2
MEAN_MOTION_DOT = .192E-5
MEAN_MOTION_DDOT = 0

CCSDS_OMM_VERS = 2.0
CREATION_DATE  = 
ORIGINATOR     = 

OBJECT_NAME    = UNKNOWN
OBJECT_ID      = 
CENTER_NAME    = EARTH
REF_FRAME      = TEME
TIME_SYSTEM    = UTC
MEAN_ELEMENT_THEORY = SGP/SGP4

EPOCH          = 2026-03-22T16:04:59.533536
MEAN_MOTION    = 13.66352933
ECCENTRICITY   = .0103013
INCLINATION    = 90.3469
RA_OF_ASC_NODE = 72.9961
ARG_OF_PERICENTER = 322.0686
MEAN_ANOMALY   = 37.3248

EPHEMERIS_TYPE = 0
CLASSIFICATION_TYPE = U
NORAD_CAT_ID   = 87159
ELEMENT_SET_NO = 999
REV_AT_EPOCH   = 57033
BSTAR          = .14588E-2
MEAN_MOTION_DOT = .1258E-4
MEAN_MOTION_DDOT = 0

CCSDS_OMM_VERS = 2.0
CREATION_DATE  = 
ORIGINATOR     = 

OBJECT_NAME    = UNKNOWN
OBJECT_ID      = 
CENTER_NAME    = EARTH
REF_FRAME      = TEME
TIME_SYSTEM    = UTC
MEAN_ELEMENT_THEORY = SGP/SGP4

EPOCH          = 2026-03-21T19:47:52.694880
MEAN_MOTION    = 13.64635463
ECCENTRICITY   = .0646578
INCLINATION    = 65.6029
RA_OF_ASC_NODE = 351.7872
ARG_OF_PERICENTER = 20.3517
MEAN_ANOMALY   = 342.2078

EPHEMERIS_TYPE = 0
CLASSIFICATION_TYPE = U
NORAD_CAT_ID   = 87163
ELEMENT_SET_NO = 999
REV_AT_EPOCH   = 59103
BSTAR          = .16857E-2
MEAN_MOTION_DOT = .5787E-4
MEAN_MOTION_DDOT = 0

